NORAD_CAT_ID,OBJECT_NAME,OBJECT_TYPE,EPOCH,MEAN_MOTION,ECCENTRICITY,INCLINATION,RA_OF_ASC_NODE,ARG_OF_PERICENTER,MEAN_ANOMALY,BSTAR,MEAN_MOTION_DOT,MEAN_MOTION_DDOT,TLE_LINE0,TLE_LINE1,TLE_LINE2,SEMIMAJOR_AXIS,PERIOD,APOGEE,PERIGEE,DECAYED
55310.0,STARLINK-5309,PAYLOAD,2024-08-11 20:13:19,14.98334836,0.0002936,70.0045,13.9335,268.0782,92.0041,0.00021381,2.459e-05,0.0,0 STARLINK-5309,1 55310U 23010AT  24224.84258510  .00002459  00000-0  21381-3 0  9995,2 55310  70.0045  13.9335 0002936 268.0782  92.0041 14.98334836 87346,6950.178,96.107,574.084,570.002,0.0
55310.0,STARLINK-5309,PAYLOAD,2024-08-12 10:38:31,14.98333897,0.0002753,70.0059,12.4208,267.4822,92.6022,0.00019391,2.222e-05,0.0,0 STARLINK-5309,1 55310U 23010AT  24225.44342448  .00002222  00000-0  19391-3 0  9992,2 55310  70.0059  12.4208 0002753 267.4822  92.6022 14.98333897 87755,6950.181,96.107,573.959,570.132,0.0
55310.0,STARLINK-5309,PAYLOAD,2024-08-13 02:39:51,14.9834797,0.000286,70.0045,10.7374,271.087,88.9962,0.00027755,3.222e-05,0.0,0 STARLINK-5309,1 55310U 23010AT  24226.11101545  .00003222  00000-0  27755-3 0  9992,2 55310  70.0045  10.7374 0002860 271.0870  88.9962 14.98347970 87532,6950.137,96.106,573.99,570.015,0.0
55310.0,STARLINK-5309,PAYLOAD,2024-08-13 10:40:34,14.98299356,0.0002688,70.0061,9.8949,266.7937,93.2915,-0.00056922,-6.873e-05,0.0,0 STARLINK-5309,1 55310U 23010AT  24226.44483967 -.00006873  00000-0 -56922-3 0  9994,2 55310  70.0061   9.8949 0002688 266.7937  93.2915 14.98299356 87586,6950.288,96.109,574.021,570.284,0.0
55310.0,STARLINK-5309,PAYLOAD,2024-08-13 20:17:23,14.98295232,0.0002826,70.0074,8.8864,263.3728,96.7109,-0.00054126,-6.539e-05,0.0,0 STARLINK-5309,1 55310U 23010AT  24226.84540927 -.00006539  00000-0 -54126-3 0  9991,2 55310  70.0074   8.8864 0002826 263.3728  96.7109 14.98295232 87964,6950.3,96.109,574.13,570.201,0.0
55310.0,STARLINK-5309,PAYLOAD,2024-08-14 02:41:54,14.98310579,0.0004617,70.0061,8.2142,264.1668,95.8965,-0.00016596,-2.072e-05,0.0,0 STARLINK-5309,1 55310U 23010AT  24227.11244030 -.00002072  00000-0 -16596-3 0  9995,2 55310  70.0061   8.2142 0004617 264.1668  95.8965 14.98310579 87686,6950.253,96.108,575.327,568.909,0.0
55310.0,STARLINK-5309,PAYLOAD,2024-08-14 12:18:43,14.98329416,0.0003058,70.0037,7.2019,270.45,89.6308,0.00041336,4.843e-05,0.0,0 STARLINK-5309,1 55310U 23010AT  24227.51300282  .00004843  00000-0  41336-3 0  9997,2 55310  70.0037   7.2019 0003058 270.4500  89.6308 14.98329416 87743,6950.195,96.107,574.185,569.934,0.0
55310.0,STARLINK-5309,PAYLOAD,2024-08-14 13:54:51,14.98329565,0.0002554,70.0038,7.0349,268.1293,91.9574,0.00049808,5.855e-05,0.0,0 STARLINK-5309,1 55310U 23010AT  24227.57976415  .00005855  00000-0  49808-3 0  9996,2 55310  70.0038   7.0349 0002554 268.1293  91.9574 14.98329565 88074,6950.194,96.107,573.834,570.284,0.0
55310.0,STARLINK-5309,PAYLOAD,2024-08-14 18:43:15,14.98338861,0.0003189,70.0024,6.5272,270.732,89.3473,0.00088839,0.00010526,0.0,0 STARLINK-5309,1 55310U 23010AT  24227.78003984  .00010526  00000-0  88839-3 0  9999,2 55310  70.0024   6.5272 0003189 270.7320  89.3473 14.98338861 88105,6950.165,96.106,574.247,569.814,0.0
55310.0,STARLINK-5309,PAYLOAD,2024-08-15 15:32:59,14.98356294,0.0002925,70.0035,4.3399,271.9075,88.1749,0.00057969,6.835e-05,0.0,0 STARLINK-5309,1 55310U 23010AT  24228.64791418  .00006835  00000-0  57969-3 0  9999,2 55310  70.0035   4.3399 0002925 271.9075  88.1749 14.98356294 88237,6950.112,96.105,574.009,569.944,0.0
55310.0,STARLINK-5309,PAYLOAD,2024-08-16 02:45:55,14.9835311,0.0003029,70.0034,3.1616,272.9252,87.1561,0.00050464,5.937e-05,0.0,0 STARLINK-5309,1 55310U 23010AT  24229.11522934  .00005937  00000-0  50464-3 0  9992,2 55310  70.0034   3.1616 0003029 272.9252  87.1561 14.98353110 87985,6950.121,96.106,574.092,569.881,0.0
55310.0,STARLINK-5309,PAYLOAD,2024-08-16 09:10:27,14.98351617,0.0002816,70.0036,2.4865,265.931,94.1527,0.00013999,1.579e-05,0.0,0 STARLINK-5309,1 55310U 23010AT  24229.38226559  .00001579  00000-0  13999-3 0  9995,2 55310  70.0036   2.4865 0002816 265.9310  94.1527 14.98351617 88346,6950.126,96.106,573.948,570.034,0.0
55310.0,STARLINK-5309,PAYLOAD,2024-08-17 18:49:18,14.98302214,0.0002547,70.0025,358.9537,269.1952,90.8915,0.0010837,0.00012852,0.0,0 STARLINK-5309,1 55310U 23010AT  24230.78424348  .00012852  00000-0  10837-2 0  9990,2 55310  70.0025 358.9537 0002547 269.1952  90.8915 14.98302214 88239,6950.279,96.109,573.914,570.374,0.0
55310.0,STARLINK-5309,PAYLOAD,2024-08-18 12:26:45,14.98335845,0.000308,70.0022,357.1043,272.9967,87.0839,9.7731e-05,1.073e-05,0.0,0 STARLINK-5309,1 55310U 23010AT  24231.51858124  .00001073  00000-0  97731-4 0  9998,2 55310  70.0022 357.1043 0003080 272.9967  87.0839 14.98335845 88341,6950.175,96.107,574.18,569.899,0.0
55310.0,STARLINK-5309,PAYLOAD,2024-08-18 18:51:17,14.98339984,0.0003232,70.0014,356.4284,278.3658,81.7135,9.7226e-05,1.068e-05,0.0,0 STARLINK-5309,1 55310U 23010AT  24231.78561718  .00001068  00000-0  97226-4 0  9990,2 55310  70.0014 356.4284 0003232 278.3658  81.7135 14.98339984 88705,6950.162,96.106,574.273,569.781,0.0
55310.0,STARLINK-5309,PAYLOAD,2024-08-19 10:52:39,14.98322059,0.0002788,70.0026,354.7477,267.9693,92.1147,4.4356e-05,4.36e-06,0.0,0 STARLINK-5309,1 55310U 23010AT  24232.45322954  .00000436  00000-0  44356-4 0  9996,2 55310  70.0026 354.7477 0002788 267.9693  92.1147 14.98322059 88480,6950.217,96.108,574.02,570.145,0.0
55310.0,STARLINK-5309,PAYLOAD,2024-08-19 14:04:55,14.98322769,0.0002791,70.0026,354.411,268.3737,91.7102,4.8623e-05,4.87e-06,0.0,0 STARLINK-5309,1 55310U 23010AT  24232.58674956  .00000487  00000-0  48623-4 0  9999,2 55310  70.0026 354.4110 0002791 268.3737  91.7102 14.98322769 88821,6950.215,96.107,574.02,570.14,0.0
55310.0,STARLINK-5309,PAYLOAD,2024-08-20 12:30:47,14.9833569,0.0003028,70.0016,352.0529,267.8266,92.2546,8.3749e-05,9.07e-06,0.0,0 STARLINK-5309,1 55310U 23010AT  24233.52138091  .00000907  00000-0  83749-4 0  9994,2 55310  70.0016 352.0529 0003028 267.8266  92.2546 14.98335690 88648,6950.175,96.107,574.145,569.936,0.0
55310.0,STARLINK-5309,PAYLOAD,2024-08-20 14:06:55,14.98338441,0.0002884,70.0011,351.8843,264.0275,96.0556,5.0194e-05,5.06e-06,0.0,0 STARLINK-5309,1 55310U 23010AT  24233.58813957  .00000506  00000-0  50194-4 0  9994,2 55310  70.0011 351.8843 0002884 264.0275  96.0556 14.98338441 88973,6950.167,96.106,574.036,570.027,0.0
55310.0,STARLINK-5309,PAYLOAD,2024-08-20 17:19:11,14.9834135,0.0003019,70.0015,351.5479,269.8417,90.2396,0.00014318,1.616e-05,0.0,0 STARLINK-5309,1 55310U 23010AT  24233.72165571  .00001616  00000-0  14318-3 0  9992,2 55310  70.0015 351.5479 0003019 269.8417  90.2396 14.98341350 88679,6950.158,96.106,574.121,569.925,0.0
55310.0,STARLINK-5309,PAYLOAD,2024-08-21 12:32:48,14.9832631,0.0002831,70.0013,349.5283,267.1097,92.9738,0.0001044,1.153e-05,0.0,0 STARLINK-5309,1 55310U 23010AT  24234.52278726  .00001153  00000-0  10440-3 0  9996,2 55310  70.0013 349.5283 0002831 267.1097  92.9738 14.98326310 88794,6950.204,96.107,574.037,570.102,0.0
55310.0,STARLINK-5309,PAYLOAD,2024-08-21 14:08:56,14.98326467,0.0002834,70.0013,349.3599,267.1492,92.9343,0.00010257,1.131e-05,0.0,0 STARLINK-5309,1 55310U 23010AT  24234.58954736  .00001131  00000-0  10257-3 0  9996,2 55310  70.0013 349.3599 0002834 267.1492  92.9343 14.98326467 89127,6950.204,96.107,574.039,570.099,0.0
55310.0,STARLINK-5309,PAYLOAD,2024-08-21 17:21:12,14.98327518,0.0002834,70.0013,349.0233,267.2972,92.7862,0.00010913,1.209e-05,0.0,0 STARLINK-5309,1 55310U 23010AT  24234.72306684  .00001209  00000-0  10913-3 0  9990,2 55310  70.0013 349.0233 0002834 267.2972  92.7862 14.98327518 89147,6950.201,96.107,574.035,570.096,0.0
